[{"name":"GAOFEN-4","l1":"1 41194U 15083A   26200.56998112 -.00000339  00000+0  00000+0 0  9991","l2":"2 41194   0.4391  83.8465 0004176 122.3664  42.0354  1.00271085 38850","cat":"geostationary"},{"name":"HODOYOSHI-4","l1":"1 40011U 14033B   26200.84649442  .00000323  00000+0  40500-4 0  9998","l2":"2 40011  97.5462  24.0948 0023038 193.8455 166.2134 14.88193059653666","cat":"other"},{"name":"DEIMOS-2","l1":"1 40013U 14033D   26200.80554196  .00001233  00000+0  12139-3 0  9994","l2":"2 40013  97.5780  74.1419 0001444 106.6103 253.5276 14.93805073642598","cat":"other"},{"name":"HODOYOSHI-3","l1":"1 40015U 14033F   26200.72109642  .00000457  00000+0  58668-4 0  9994","l2":"2 40015  97.6452   2.4590 0031417 246.2924 113.4994 14.85442279652459","cat":"other"},{"name":"SPOT 7","l1":"1 40053U 14034A   26200.85054154  .00000038  00000+0  16910-4 0  9997","l2":"2 40053  98.0607 262.4980 0001630  95.2924 264.8463 14.60982682641905","cat":"science"},{"name":"SKYSAT-B","l1":"1 40072U 14037D   26200.87200220  .00000570  00000+0  68683-4 0  9995","l2":"2 40072  98.3857 161.7057 0005930 158.4103 201.7363 14.88098127650822","cat":"other"},{"name":"WORLDVIEW-3 (WV-3)","l1":"1 40115U 14048A   26200.84626800  .00000368  00000+0  49378-4 0  9993","l2":"2 40115  97.8553 275.2267 0001644 149.1085 211.0226 14.85068077646752","cat":"science"},{"name":"GAOFEN-2","l1":"1 40118U 14049A   26200.87872499  .00000578  00000+0  81575-4 0  9995","l2":"2 40118  98.0089 265.0522 0008557 121.8390 238.3657 14.80931491644076","cat":"other"},{"name":"YAOGAN-21","l1":"1 40143U 14053A   26200.87060986  .00002430  00000+0  94865-4 0  9993","l2":"2 40143  97.1455 239.7095 0007180 351.9054   8.2068 15.26792636659947","cat":"classified"},{"name":"YAOGAN-22","l1":"1 40275U 14063A   26200.81158090 -.00000040  00000+0  19096-4 0  9997","l2":"2 40275 100.7769 352.6324 0006903 115.6728 244.5096 13.15531736564104","cat":"classified"},{"name":"ASNARO","l1":"1 40298U 14070A   26200.82004741  .00004281  00000+0  20525-3 0  9992","l2":"2 40298  97.3433 276.0560 0004602  77.0689 283.1059 15.19416072648966","cat":"other"},{"name":"YAOGAN-24","l1":"1 40310U 14072A   26200.82236428  .00000900  00000+0  13788-3 0  9995","l2":"2 40310  98.1536 338.4393 0014956 155.0993 205.0941 14.76123577628530","cat":"classified"},{"name":"CBERS 4","l1":"1 40336U 14079A   26200.86673138 -.00000215  00000+0 -59992-4 0  9996","l2":"2 40336  98.3510 256.6700 0000608  64.4895 295.6354 14.35515886608644","cat":"science"},{"name":"YAOGAN-26","l1":"1 40362U 14088A   26200.84249448  .00007893  00000+0  14981-3 0  9991","l2":"2 40362  97.0659 200.3161 0001143 306.3685  53.7461 15.48557672642756","cat":"classified"},{"name":"SMAP","l1":"1 40376U 15003A   26200.83185875  .00000172  00000+0  42296-4 0  9990","l2":"2 40376  98.1285 207.4655 0001630  93.3256 266.8132 14.63391249612393","cat":"science"},{"name":"KOMPSAT-3A","l1":"1 40536U 15014A   26200.87145606  .00021024  00000+0  28718-3 0  9993","l2":"2 40536  97.6904 194.6659 0055624  59.1272 301.5436 15.55618142626894","cat":"science"},{"name":"SENTINEL-2A","l1":"1 40697U 15028A   26200.80211848  .00000064  00000+0  41013-4 0  9996","l2":"2 40697  98.5670 275.1890 0001296  95.3383 264.7948 14.30815437578392","cat":"science"},{"name":"GAOFEN-8","l1":"1 40701U 15030A   26200.82727866  .00012395  00000+0  24651-3 0  9997","l2":"2 40701  97.6898  36.1830 0009811  81.0345 279.2014 15.47053802616498","cat":"other"},{"name":"CARBONITE 1 (CBNT-1)","l1":"1 40718U 15032D   26200.82517933  .00000277  00000+0  39662-4 0  9994","l2":"2 40718  97.6528  17.5291 0014247 181.4157 178.7019 14.83673529594187","cat":"other"},{"name":"YAOGAN-27","l1":"1 40878U 15040A   26200.86953700 -.00000074  00000+0 -84040-4 0  9997","l2":"2 40878 100.1177 185.8368 0008707 135.0938 225.0881 13.16070964521962","cat":"classified"},{"name":"GAOFEN-9 01","l1":"1 40894U 15047A   26200.85603593  .00000408  00000+0  56264-4 0  9999","l2":"2 40894  97.6263 235.0648 0028137  35.7730 324.5362 14.82939836585033","cat":"other"},{"name":"YAOGAN-28","l1":"1 41026U 15064A   26200.81245759  .00003403  00000+0  12783-3 0  9993","l2":"2 41026  97.3117 338.4254 0011991  78.9401 281.3186 15.27793173595667","cat":"classified"},{"name":"YAOGAN-29","l1":"1 41038U 15069A   26200.83208299  .00000048  00000+0  12540-4 0  9995","l2":"2 41038  98.0016 229.5147 0000277   3.4151 356.7064 14.83107260575462","cat":"classified"},{"name":"KENT RIDGE 1","l1":"1 41167U 15077B   26200.83884566  .00002305  00000+0  63189-4 0  9997","l2":"2 41167  14.9808  23.1228 0008270 340.3146  19.6856 15.23298386586086","cat":"other"},{"name":"JASON-3","l1":"1 41240U 16002A   26200.85712160 -.00000060  00000+0  76673-5 0  9990","l2":"2 41240  66.0416  57.1506 0008139 270.4969  89.5117 12.87628847491455","cat":"science"},{"name":"SENTINEL-3A","l1":"1 41335U 16011A   26200.82693734  .00000037  00000+0  33164-4 0  9997","l2":"2 41335  98.6233 267.7391 0001317  89.0426 271.0905 14.26740566542719","cat":"science"},{"name":"ZIYUAN 3-02 (ZY 3-02)","l1":"1 41556U 16033A   26200.87922009  .00002823  00000+0  12838-3 0  9990","l2":"2 41556  97.3820 276.0252 0014584 168.8379 191.3183 15.21460429562957","cat":"other"},{"name":"CARTOSAT-2C","l1":"1 41599U 16040A   26200.86089998  .00000990  00000+0  50139-4 0  9995","l2":"2 41599  97.4458 260.3860 0009123  31.0257 329.1515 15.19280455558672","cat":"science"},{"name":"SKYSAT-C1","l1":"1 41601U 16040C   26200.84284056  .00004760  00000+0  13448-3 0  9999","l2":"2 41601  96.9552 230.8008 0000566 200.2206 159.9017 15.36793049562888","cat":"other"},{"name":"LAPAN-A3","l1":"1 41603U 16040E   26200.88897034  .00001687  00000+0  54725-4 0  9990","l2":"2 41603  97.1508 195.9673 0008309 255.4021 104.6301 15.33294735559821","cat":"other"},{"name":"GAOFEN-3","l1":"1 41727U 16049A   26200.83036072 -.00000167  00000+0 -37431-4 0  9997","l2":"2 41727  98.4020 208.1242 0001783  83.3604 276.7789 14.42218296523351","cat":"other"}]